NORAD_CAT_ID,OBJECT_NAME,OBJECT_TYPE,EPOCH,MEAN_MOTION,ECCENTRICITY,INCLINATION,RA_OF_ASC_NODE,ARG_OF_PERICENTER,MEAN_ANOMALY,BSTAR,MEAN_MOTION_DOT,MEAN_MOTION_DDOT,TLE_LINE0,TLE_LINE1,TLE_LINE2,SEMIMAJOR_AXIS,PERIOD,APOGEE,PERIGEE,DECAYED
52478.0,STARLINK-3825,PAYLOAD,2023-02-22 02:57:49,15.08846365,0.0001213,53.2169,9.1321,88.8089,271.3042,9.0951e-05,1.16e-05,0.0,0 STARLINK-3825,1 52478U 22049AD  23053.12348418  .00001160  00000-0  90951-4 0  9993,2 52478  53.2169   9.1321 0001213  88.8089 271.3042 15.08846365 44607,6917.861,95.437,540.565,538.887,0.0
52478.0,STARLINK-3825,PAYLOAD,2023-02-22 07:43:58,15.08848638,0.0001367,53.2162,8.2395,85.3612,274.7536,0.00017234,2.457e-05,0.0,0 STARLINK-3825,1 52478U 22049AD  23053.32220178  .00002457  00000-0  17234-3 0  9999,2 52478  53.2162   8.2395 0001367  85.3612 274.7536 15.08848638 45718,6917.854,95.437,540.665,538.773,0.0
52478.0,STARLINK-3825,PAYLOAD,2023-02-22 20:27:04,15.08827991,0.0001899,53.2151,5.8617,79.3294,280.7911,3.995e-05,3.48e-06,0.0,0 STARLINK-3825,1 52478U 22049AD  23053.85213727  .00000348  00000-0  39950-4 0  9996,2 52478  53.2151   5.8617 0001899  79.3294 280.7911 15.08827991 45796,6917.917,95.438,541.096,538.468,0.0
52478.0,STARLINK-3825,PAYLOAD,2023-02-23 05:59:23,15.08834962,0.000144,53.2156,4.0758,93.9868,266.1288,2.782e-05,1.55e-06,0.0,0 STARLINK-3825,1 52478U 22049AD  23054.24957501  .00000155  00000-0  27820-4 0  9994,2 52478  53.2156   4.0758 0001440  93.9868 266.1288 15.08834962 44777,6917.896,95.438,540.757,538.765,0.0
52478.0,STARLINK-3825,PAYLOAD,2023-02-23 20:17:51,15.08846099,0.0001497,53.2161,1.4009,75.7978,284.318,0.00020678,3.005e-05,0.0,0 STARLINK-3825,1 52478U 22049AD  23054.84573078  .00003005  00000-0  20678-3 0  9993,2 52478  53.2161   1.4009 0001497  75.7978 284.3180 15.08846099 44862,6917.862,95.437,540.762,538.691,0.0
52478.0,STARLINK-3825,PAYLOAD,2023-02-24 05:50:08,15.08869716,0.0001393,53.2172,359.6161,82.6379,277.4771,0.00041406,6.313e-05,0.0,0 STARLINK-3825,1 52478U 22049AD  23055.24315565  .00006313  00000-0  41406-3 0  9990,2 52478  53.2172 359.6161 0001393  82.6379 277.4771 15.08869716 44925,6917.79,95.436,540.618,538.691,0.0
52478.0,STARLINK-3825,PAYLOAD,2023-02-24 20:08:38,15.08834801,0.0001298,53.2161,356.941,86.1517,273.9623,0.00015402,2.164e-05,0.0,0 STARLINK-3825,1 52478U 22049AD  23055.83933447  .00002164  00000-0  15402-3 0  9997,2 52478  53.2161 356.9410 0001298  86.1517 273.9623 15.08834801 46091,6917.896,95.438,540.659,538.863,0.0
52478.0,STARLINK-3825,PAYLOAD,2023-02-24 23:19:24,15.08838229,0.0001244,53.217,356.3459,90.2346,269.8789,-1.7994e-05,-5.74e-06,0.0,0 STARLINK-3825,1 52478U 22049AD  23055.97181097 -.00000574  00000-0 -17994-4 0  9992,2 52478  53.2170 356.3459 0001244  90.2346 269.8789 15.08838229 45033,6917.886,95.438,540.611,538.89,0.0
52478.0,STARLINK-3825,PAYLOAD,2023-02-25 05:40:56,15.08842631,0.0001352,53.2163,355.1563,89.984,270.1307,7.9026e-05,9.7e-06,0.0,0 STARLINK-3825,1 52478U 22049AD  23056.23677009  .00000970  00000-0  79026-4 0  9997,2 52478  53.2163 355.1563 0001352  89.9840 270.1307 15.08842631 46159,6917.872,95.437,540.673,538.802,0.0
52478.0,STARLINK-3825,PAYLOAD,2023-02-26 05:31:43,15.08854727,0.0001353,53.2164,350.6959,89.9863,270.1285,0.00033824,5.101e-05,0.0,0 STARLINK-3825,1 52478U 22049AD  23057.23036704  .00005101  00000-0  33824-3 0  9995,2 52478  53.2164 350.6959 0001353  89.9863 270.1285 15.08854727 45226,6917.835,95.437,540.636,538.764,0.0
52478.0,STARLINK-3825,PAYLOAD,2023-02-26 19:50:12,15.08835758,6.66e-05,53.2165,348.0217,117.5052,242.6008,0.00013262,1.823e-05,0.0,0 STARLINK-3825,1 52478U 22049AD  23057.82653456  .00001823  00000-0  13262-3 0  9990,2 52478  53.2165 348.0217 0000666 117.5052 242.6008 15.08835758 45319,6917.893,95.438,540.219,539.298,0.0
52478.0,STARLINK-3825,PAYLOAD,2023-02-27 05:22:31,15.08848155,0.0001267,53.2163,346.2357,107.9903,252.1227,0.00038637,5.868e-05,0.0,0 STARLINK-3825,1 52478U 22049AD  23058.22397129  .00005868  00000-0  38637-3 0  9993,2 52478  53.2163 346.2357 0001267 107.9903 252.1227 15.08848155 45378,6917.855,95.437,540.597,538.844,0.0
52478.0,STARLINK-3825,PAYLOAD,2023-02-27 19:40:58,15.08877429,0.0001163,53.2163,343.5595,103.7096,256.4026,0.0017811,0.00028201,0.0,0 STARLINK-3825,1 52478U 22049AD  23058.82012451  .00028201  00000-0  17811-2 0  9997,2 52478  53.2163 343.5595 0001163 103.7096 256.4026 15.08877429 45464,6917.766,95.435,540.436,538.826,0.0
52478.0,STARLINK-3825,PAYLOAD,2023-02-28 05:13:16,15.08913781,0.0001146,53.2158,341.7757,104.4805,255.6314,0.0021924,0.00034847,0.0,0 STARLINK-3825,1 52478U 22049AD  23059.21754890  .00034847  00000-0  21924-2 0  9994,2 52478  53.2158 341.7757 0001146 104.4805 255.6314 15.08913781 46605,6917.655,95.433,540.313,538.727,0.0
52478.0,STARLINK-3825,PAYLOAD,2023-02-28 19:31:45,15.08831129,0.0001344,53.2157,339.0996,86.0598,274.0547,0.00042257,6.442e-05,0.0,0 STARLINK-3825,1 52478U 22049AD  23059.81372385  .00006442  00000-0  42257-3 0  9998,2 52478  53.2157 339.0996 0001344  86.0598 274.0547 15.08831129 46690,6917.908,95.438,540.702,538.843,0.0
52478.0,STARLINK-3825,PAYLOAD,2023-02-28 22:42:32,15.08808033,0.0001212,53.2143,338.5054,11.395,348.7069,-6.5267e-05,-1.325e-05,0.0,0 STARLINK-3825,1 52478U 22049AD  23059.94620774 -.00001325  00000-0 -65267-4 0  9994,2 52478  53.2143 338.5054 0001212  11.3950 348.7069 15.08808033 45630,6917.978,95.44,540.682,539.005,0.0
52478.0,STARLINK-3825,PAYLOAD,2023-03-01 06:39:28,15.08819898,0.0001296,53.2145,337.0185,68.0916,292.0214,0.00014294,1.987e-05,0.0,0 STARLINK-3825,1 52478U 22049AD  23060.27741302  .00001987  00000-0  14294-3 0  9998,2 52478  53.2145 337.0185 0001296  68.0916 292.0214 15.08819898 45683,6917.942,95.439,540.703,538.91,0.0
52478.0,STARLINK-3825,PAYLOAD,2023-03-02 03:19:29,15.08878405,0.0001428,53.2154,333.1522,69.1837,290.9308,0.0022106,0.00035106,0.0,0 STARLINK-3825,1 52478U 22049AD  23061.13853050  .00035106  00000-0  22106-2 0  9998,2 52478  53.2154 333.1522 0001428  69.1837 290.9308 15.08878405 45811,6917.763,95.435,540.616,538.64,0.0
52478.0,STARLINK-3825,PAYLOAD,2023-03-02 17:37:57,15.08846247,0.0002283,53.2157,330.4797,62.477,297.6454,0.0010012,0.00015685,0.0,0 STARLINK-3825,1 52478U 22049AD  23061.73469674  .00015685  00000-0  10012-2 0  9992,2 52478  53.2157 330.4797 0002283  62.4770 297.6454 15.08846247 46984,6917.861,95.437,541.306,538.147,0.0
52478.0,STARLINK-3825,PAYLOAD,2023-03-03 03:10:16,15.08862471,0.000144,53.2159,328.6899,58.8063,301.307,0.0021221,0.00033668,0.0,0 STARLINK-3825,1 52478U 22049AD  23062.13213470  .00033668  00000-0  21221-2 0  9993,2 52478  53.2159 328.6899 0001440  58.8063 301.3070 15.08862471 45967,6917.812,95.436,540.673,538.681,0.0
52478.0,STARLINK-3825,PAYLOAD,2023-03-03 23:50:16,15.08885314,0.0001373,53.2161,324.8256,60.4658,299.6471,0.0022885,0.00036367,0.0,0 STARLINK-3825,1 52478U 22049AD  23062.99324548  .00036367  00000-0  22885-2 0  9992,2 52478  53.2161 324.8256 0001373  60.4658 299.6471 15.08885314 46099,6917.742,95.435,540.557,538.657,0.0
52478.0,STARLINK-3825,PAYLOAD,2023-03-04 03:01:02,15.08897575,0.0001475,53.216,324.23,65.2651,294.8495,0.0024383,0.00038793,0.0,0 STARLINK-3825,1 52478U 22049AD  23063.12572069  .00038793  00000-0  24383-2 0  9991,2 52478  53.2160 324.2300 0001475  65.2651 294.8495 15.08897575 47198,6917.704,95.434,540.59,538.549,0.0
52478.0,STARLINK-3825,PAYLOAD,2023-03-05 07:38:00,15.08820542,0.0001354,53.2161,318.8743,82.7278,277.3868,0.00092703,0.00014489,0.0,0 STARLINK-3825,1 52478U 22049AD  23064.31805569  .00014489  00000-0  92703-3 0  9995,2 52478  53.2161 318.8743 0001354  82.7278 277.3868 15.08820542 46294,6917.94,95.439,540.742,538.868,0.0
52478.0,STARLINK-3825,PAYLOAD,2023-03-05 21:56:28,15.088355,0.0001689,53.2183,316.2033,47.1437,312.9697,0.00070398,0.00010932,0.0,0 STARLINK-3825,1 52478U 22049AD  23064.91422276  .00010932  00000-0  70398-3 0  9996,2 52478  53.2183 316.2033 0001689  47.1437 312.9697 15.08835500 47461,6917.894,95.438,540.928,538.591,0.0
52478.0,STARLINK-3825,PAYLOAD,2023-03-06 01:07:14,15.08848814,0.0001418,53.2168,315.6072,76.5449,283.5701,0.0019048,0.00030164,0.0,0 STARLINK-3825,1 52478U 22049AD  23065.04670132  .00030164  00000-0  19048-2 0  9990,2 52478  53.2168 315.6072 0001418  76.5449 283.5701 15.08848814 46403,6917.853,95.437,540.699,538.737,0.0
52478.0,STARLINK-3825,PAYLOAD,2023-03-06 17:01:06,15.08839393,0.0001807,53.2179,312.6354,92.322,267.798,0.00031829,4.781e-05,0.0,0 STARLINK-3825,1 52478U 22049AD  23065.70910388  .00004781  00000-0  31829-3 0  9991,2 52478  53.2179 312.6354 0001807  92.3220 267.7980 15.08839393 46506,6917.882,95.438,540.997,538.497,0.0
52478.0,STARLINK-3825,PAYLOAD,2023-03-07 02:33:24,15.08861128,0.0001067,53.216,310.8493,90.6162,269.4952,0.001041,0.00016328,0.0,0 STARLINK-3825,1 52478U 22049AD  23066.10653873  .00016328  00000-0  10410-2 0  9991,2 52478  53.2160 310.8493 0001067  90.6162 269.4952 15.08861128 46569,6917.816,95.436,540.419,538.943,0.0
52478.0,STARLINK-3825,PAYLOAD,2023-03-07 16:51:53,15.08853539,0.0001197,53.2153,308.1714,92.9569,267.156,0.0010044,0.00015739,0.0,0 STARLINK-3825,1 52478U 22049AD  23066.70270075  .00015739  00000-0  10044-2 0  9994,2 52478  53.2153 308.1714 0001197  92.9569 267.1560 15.08853539 46654,6917.839,95.437,540.532,538.876,0.0
52478.0,STARLINK-3825,PAYLOAD,2023-03-07 23:13:25,15.08861457,0.0001521,53.2141,306.9831,88.8787,271.2379,0.0013164,0.00020737,0.0,0 STARLINK-3825,1 52478U 22049AD  23066.96765898  .00020737  00000-0  13164-2 0  9994,2 52478  53.2141 306.9831 0001521  88.8787 271.2379 15.08861457 47770,6917.815,95.436,540.732,538.628,0.0
52478.0,STARLINK-3825,PAYLOAD,2023-03-08 02:24:11,15.08864886,0.0001024,53.2131,306.3882,84.1316,275.9793,0.0010151,0.00015915,0.0,0 STARLINK-3825,1 52478U 22049AD  23067.10013605  .00015915  00000-0  10151-2 0  9998,2 52478  53.2131 306.3882 0001024  84.1316 275.9793 15.08864886 47796,6917.804,95.436,540.378,538.961,0.0
